#aV2019  8 21  0  0  0.00000000     288 DD+AD WGS84 FIT  NGA
## 2067 259200.00000000   300.00000000 58716 0.0000000000000
+   31     1  2  3  5  6  7  8  9 10 11 12 13 14 15 16 17 18
+         19 20 21 22 23 24 25 26 27 28 29 30 31 32  0  0  0
+          0  0  0  0  0  0  0  0  0  0  0  0  0  0  0  0  0
+          0  0  0  0  0  0  0  0  0  0  0  0  0  0  0  0  0
+          0  0  0  0  0  0  0  0  0  0  0  0  0  0  0  0  0
++         2  2  2  2  2  2  2  2  2  2  2  2  2  2  2  2  2
++         2  2  2  2  2  2  2  2  2  2  2  2  2  2  0  0  0
++         0  0  0  0  0  0  0  0  0  0  0  0  0  0  0  0  0
++         0  0  0  0  0  0  0  0  0  0  0  0  0  0  0  0  0
++         0  0  0  0  0  0  0  0  0  0  0  0  0  0  0  0  0
%c cc cc ccc ccc cccc cccc cccc cccc ccccc ccccc ccccc ccccc
%c cc cc ccc ccc cccc cccc cccc cccc ccccc ccccc ccccc ccccc
%f  0.0000000  0.000000000  0.00000000000  0.000000000000000
%f  0.0000000  0.000000000  0.00000000000  0.000000000000000
%i    0    0    0    0      0      0      0      0         0
%i    0    0    0    0      0      0      0      0         0
/*      NGA, ST. LOUIS,MO.                                  
/*   EPHEMERIS COMPUTED FROM 2 DAYS OF DATA                 
/*   EPOCHA v5 SMOOTHER                                     
/*   G1762 IERS2010 SATAF SATAPC                            
*  2019  8 21 21 20  0.00000000
P  1 -10960.175896  20614.175793 -12554.856440   -103.823034                    
V  1 -13275.462064   8668.031858  26549.243041     -0.117038                    
P  2  21020.986776 -14563.792328  -6292.022312   -287.996514                    
V  2  -4096.264437   8397.645175 -30347.360685     -0.083168                    
P  3  -1342.913877  15429.845294 -21637.052746     -3.501847                    
V  3 -25950.078342  -8588.000513  -4435.652920     -0.032941                    
P  5  21110.202675  -4878.484399  15367.198615     -0.787546                    
V  5  18158.745881   7910.837229 -22040.573309     -0.002935                    
P  6  19299.906772   -508.600016 -18213.807540    -32.222313                    
V  6 -16577.359619  16222.354689 -17950.690018     -0.119808                    
P  7   3945.720226  16089.435980  20940.181129    -89.989217                    
V  7 -20580.604932  16063.647512  -9055.858915     -0.078747                    
P  8  -6298.869085  20745.959877  15229.559803     -3.567793                    
V  8  -5869.189571 -18535.480832  23069.066381     -0.014966                    
P  9   8070.768026  24994.691300   3872.594220    -12.054705                    
V  9  -1953.567023   5495.909635 -31068.887546     -0.090617                    
P 10 -23623.961496 -11491.883032   4677.468885    -23.031938                    
V 10   6313.602378   -466.744822  30950.733208     -0.144052                    
P 11  -7618.272429  25391.172524  -3831.308455   -528.889298                    
V 11  -5374.151509   2313.631917  29907.747356      0.102439                    
P 12   5792.350412 -13672.679483 -22234.351837    211.802925                    
V 12  25447.440677  10820.687745    131.931481     -0.037265                    
P 13  12963.421241 -11593.647378  19945.898197    -48.493255                    
V 13   2856.455904  25432.497672  12912.954846      0.019576                    
P 14 -15270.530388  -4438.068443 -20976.101417    -65.399661                    
V 14  -2493.775812 -27258.734790   7288.203171      0.019268                    
P 15   4734.460128 -21521.237347  14270.121729   -292.535586                    
V 15   8422.302678  17148.167086  23021.405465      0.026300                    
P 16 -21851.384997   1350.707733  15149.351079    -67.040750                    
V 16 -17150.718266  -9080.354392 -23215.301784     -0.033657                    
P 17  13862.650560  13422.213551 -17877.065973    111.045049                    
V 17   1976.498285  23402.447442  18596.152815      0.068449                    
P 18 -16408.113286  20390.792013  -4650.379859     79.676299                    
V 18  -5883.005855   1537.805114  30966.625939      0.029647                    
P 19  14877.308642   6617.672129 -21278.018676   -277.819555                    
V 19   1818.794483  26210.154333   9598.387338      0.050531                    
P 20 -18186.477026 -14004.897802  13401.196110    526.558268                    
V 20  17407.257307    784.575319  24083.626026      0.001588                    
P 21  -8949.859439 -13287.617941  21993.473792   -132.383399                    
V 21  18761.944648 -18147.177191  -3277.424190      0.066223                    
P 22  -9502.890772  13449.399390 -20602.117817   -746.449055                    
V 22 -25709.257552  -7670.633037   6868.975127     -0.042920                    
P 23   -222.513036  25123.673095  -7633.428583   -171.024023                    
V 23  -5632.585067  -9299.101325 -29531.216872      0.019576                    
P 24  12069.177947 -21494.599612  -9588.832233     -1.100551                    
V 24  11059.453974  -5978.187565  28118.185354     -0.004172                    
P 25  -9497.230759 -16790.881108 -18577.627458     -8.567518                    
V 25  22153.875488   6441.502944 -17100.511494     -0.019537                    
P 26 -25720.527426  -3570.122020   6005.967850     20.579779                    
V 26  -6411.232555  -5023.177816 -30174.034210      0.089541                    
P 27 -13077.924253   8229.853945  21445.793722    -31.020768                    
V 27  -5941.805218 -26855.126077   6937.455941     -0.116378                    
P 28  22243.573189  13704.598795   5063.325626    764.208172                    
V 28  -6038.862942   -386.246070  31419.509578     -0.008571                    
P 29  -4202.513962 -26181.175422   1286.016958    118.829746                    
V 29   1810.166125  -1918.369340 -32258.155568     -0.101135                    
P 30  14057.505108   8375.940480  20983.302508    -24.395482                    
V 30 -20366.628209  17144.563532   6613.954202     -0.078184                    
P 31 -20722.237999   1798.763407 -16773.231555     15.759154                    
V 31  15322.770926 -14618.199100 -20064.584951     -0.026124                    
P 32 -15221.686068 -12899.543918 -17527.629694     27.919323                    
V 32  -2795.234398 -22235.287389  18601.746444      0.143066                    
EOF
